start=new Date('2022-06-18T00:00:00.000Z').valueOf();
sats=[{"TIME_SYSTEM":"UTC","ECCENTRICITY":"0.00014960","TLE_LINE2":"2 46331  53.0545  14.2148 0001496  72.7460 287.3693 15.06398683 98911","PERIOD":"95.592","ARG_OF_PERICENTER":"72.7460","ELEMENT_SET_NO":"999","EPOCH":"2022-06-15T22:39:27.788832","COUNTRY_CODE":"US","RA_OF_ASC_NODE":"14.2148","INCLINATION":"53.0545","FILE":"3497002","LAUNCH_DATE":"2020-09-03","CENTER_NAME":"EARTH","OBJECT_ID":"2020-062G","REF_FRAME":"TEME","SEMIMAJOR_AXIS":"6925.353","DECAY_DATE":null,"EPHEMERIS_TYPE":"0","MEAN_MOTION":"15.06398683","PERIAPSIS":"546.182","MEAN_MOTION_DOT":"0.00000130","REV_AT_EPOCH":"9891","MEAN_ANOMALY":"287.3693","MEAN_MOTION_DDOT":"0.0000000000000","MEAN_ELEMENT_THEORY":"SGP4","OBJECT_TYPE":"PAYLOAD","CLASSIFICATION_TYPE":"U","OBJECT_NAME":"STARLINK-1719","GP_ID":"206285264","SITE":"AFETR","APOAPSIS":"548.254","BSTAR":"0.00002762000000","RCS_SIZE":"LARGE","NORAD_CAT_ID":"46331","TLE_LINE1":"1 46331U 20062G   22166.94407163  .00000130  00000-0  27620-4 0  9993"},{"REF_FRAME":"TEME","SEMIMAJOR_AXIS":"6925.336","MEAN_MOTION":"15.06404169","PERIAPSIS":"546.210","MEAN_MOTION_DOT":"0.00000412","DECAY_DATE":null,"EPHEMERIS_TYPE":"0","MEAN_ANOMALY":"302.2088","REV_AT_EPOCH":"9891","CENTER_NAME":"EARTH","OBJECT_ID":"2020-062H","FILE":"3497002","INCLINATION":"53.0556","LAUNCH_DATE":"2020-09-03","ARG_OF_PERICENTER":"57.9039","TLE_LINE2":"2 46332  53.0556  14.1833 0001430  57.9039 302.2088 15.06404169 98911","PERIOD":"95.592","ECCENTRICITY":"0.00014300","TIME_SYSTEM":"UTC","EPOCH":"2022-06-15T22:55:22.751616","COUNTRY_CODE":"US","ELEMENT_SET_NO":"999","RA_OF_ASC_NODE":"14.1833","BSTAR":"0.00004654500000","RCS_SIZE":"LARGE","TLE_LINE1":"1 46332U 20062H   22166.95512444  .00000412  00000-0  46545-4 0  9994","NORAD_CAT_ID":"46332","OBJECT_NAME":"STARLINK-1721","SITE":"AFETR","GP_ID":"206286014","APOAPSIS":"548.191","MEAN_ELEMENT_THEORY":"SGP4","MEAN_MOTION_DDOT":"0.0000000000000","CLASSIFICATION_TYPE":"U","OBJECT_TYPE":"PAYLOAD"},{"APOAPSIS":"548.404","GP_ID":"206286262","SITE":"AFETR","OBJECT_NAME":"STARLINK-1723","OBJECT_TYPE":"PAYLOAD","CLASSIFICATION_TYPE":"U","MEAN_MOTION_DDOT":"0.0000000000000","MEAN_ELEMENT_THEORY":"SGP4","NORAD_CAT_ID":"46333","TLE_LINE1":"1 46333U 20062J   22166.96987438  .00000679  00000-0  64490-4 0  9999","RCS_SIZE":"LARGE","BSTAR":"0.00006449000000","LAUNCH_DATE":"2020-09-03","INCLINATION":"53.0548","FILE":"3497002","RA_OF_ASC_NODE":"14.1171","ELEMENT_SET_NO":"999","EPOCH":"2022-06-15T23:16:37.146432","COUNTRY_CODE":"US","TIME_SYSTEM":"UTC","TLE_LINE2":"2 46333  53.0548  14.1171 0001711  64.8790 295.2376 15.06398176 98912","ECCENTRICITY":"0.00017110","PERIOD":"95.592","ARG_OF_PERICENTER":"64.8790","MEAN_ANOMALY":"295.2376","REV_AT_EPOCH":"9891","DECAY_DATE":null,"EPHEMERIS_TYPE":"0","PERIAPSIS":"546.034","MEAN_MOTION_DOT":"0.00000679","MEAN_MOTION":"15.06398176","SEMIMAJOR_AXIS":"6925.354","REF_FRAME":"TEME","OBJECT_ID":"2020-062J","CENTER_NAME":"EARTH"},{"MEAN_ELEMENT_THEORY":"SGP4","MEAN_MOTION_DDOT":"0.0000000000000","CLASSIFICATION_TYPE":"U","OBJECT_TYPE":"PAYLOAD","OBJECT_NAME":"STARLINK-1725","APOAPSIS":"548.488","SITE":"AFETR","GP_ID":"206235760","RCS_SIZE":"LARGE","BSTAR":"0.00018838000000","TLE_LINE1":"1 46334U 20062K   22166.83905897  .00002525  00000-0  18838-3 0  9991","NORAD_CAT_ID":"46334","TLE_LINE2":"2 46334  53.0555 354.9657 0001838  54.5510 305.5650 15.06399353 99178","ECCENTRICITY":"0.00018380","PERIOD":"95.592","ARG_OF_PERICENTER":"54.5510","TIME_SYSTEM":"UTC","RA_OF_ASC_NODE":"354.9657","EPOCH":"2022-06-15T20:08:14.695008","COUNTRY_CODE":"US","ELEMENT_SET_NO":"999","LAUNCH_DATE":"2020-09-03","FILE":"3496999","INCLINATION":"53.0555","OBJECT_ID":"2020-062K","CENTER_NAME":"EARTH","SEMIMAJOR_AXIS":"6925.351","REF_FRAME":"TEME","MEAN_ANOMALY":"305.5650","REV_AT_EPOCH":"9917","PERIAPSIS":"545.943","MEAN_MOTION_DOT":"0.00002525","MEAN_MOTION":"15.06399353","DECAY_DATE":null,"EPHEMERIS_TYPE":"0"},{"RCS_SIZE":"LARGE","BSTAR":"-0.00005734100000","TLE_LINE1":"1 46335U 20062L   22166.99937032 -.00001135  00000-0 -57341-4 0  9996","NORAD_CAT_ID":"46335","MEAN_ELEMENT_THEORY":"SGP4","MEAN_MOTION_DDOT":"0.0000000000000","OBJECT_TYPE":"PAYLOAD","CLASSIFICATION_TYPE":"U","OBJECT_NAME":"STARLINK-1727","APOAPSIS":"548.388","SITE":"AFETR","GP_ID":"206285765","OBJECT_ID":"2020-062L","CENTER_NAME":"EARTH","SEMIMAJOR_AXIS":"6925.378","REF_FRAME":"TEME","REV_AT_EPOCH":"9892","MEAN_ANOMALY":"294.1920","MEAN_MOTION_DOT":"-0.00001135","PERIAPSIS":"546.098","MEAN_MOTION":"15.06390445","DECAY_DATE":null,"EPHEMERIS_TYPE":"0","ECCENTRICITY":"0.00016530","TLE_LINE2":"2 46335  53.0566  13.9868 0001653  65.9242 294.1920 15.06390445 98928","PERIOD":"95.593","ARG_OF_PERICENTER":"65.9242","TIME_SYSTEM":"UTC","RA_OF_ASC_NODE":"13.9868","EPOCH":"2022-06-15T23:59:05.595648","COUNTRY_CODE":"US","ELEMENT_SET_NO":"999","LAUNCH_DATE":"2020-09-03","FILE":"3497002","INCLINATION":"53.0566"},{"OBJECT_NAME":"STARLINK-1738","SITE":"AFETR","GP_ID":"206234759","APOAPSIS":"548.207","MEAN_ELEMENT_THEORY":"SGP4","MEAN_MOTION_DDOT":"0.0000000000000","OBJECT_TYPE":"PAYLOAD","CLASSIFICATION_TYPE":"U","BSTAR":"-0.00003881400000","RCS_SIZE":"LARGE","TLE_LINE1":"1 46336U 20062M   22166.79110266 -.00000860  00000-0 -38814-4 0  9995","NORAD_CAT_ID":"46336","FILE":"3496999","INCLINATION":"53.0541","LAUNCH_DATE":"2020-09-03","TLE_LINE2":"2 46336  53.0541 354.9079 0001432  71.9457 288.1688 15.06399273 99163","PERIOD":"95.592","ARG_OF_PERICENTER":"71.9457","ECCENTRICITY":"0.00014320","TIME_SYSTEM":"UTC","EPOCH":"2022-06-15T18:59:11.269824","COUNTRY_CODE":"US","ELEMENT_SET_NO":"999","RA_OF_ASC_NODE":"354.9079","REF_FRAME":"TEME","SEMIMAJOR_AXIS":"6925.351","PERIAPSIS":"546.224","MEAN_MOTION":"15.06399273","MEAN_MOTION_DOT":"-0.00000860","EPHEMERIS_TYPE":"0","DECAY_DATE":null,"REV_AT_EPOCH":"9916","MEAN_ANOMALY":"288.1688","CENTER_NAME":"EARTH","OBJECT_ID":"2020-062M"},{"RCS_SIZE":"LARGE","BSTAR":"-0.00010046000000","TLE_LINE1":"1 46337U 20062N   22166.80586185 -.00001777  00000-0 -10046-3 0  9999","NORAD_CAT_ID":"46337","OBJECT_NAME":"STARLINK-1750","APOAPSIS":"548.267","SITE":"AFETR","GP_ID":"206235009","MEAN_ELEMENT_THEORY":"SGP4","MEAN_MOTION_DDOT":"0.0000000000000","OBJECT_TYPE":"PAYLOAD","CLASSIFICATION_TYPE":"U","SEMIMAJOR_AXIS":"6925.392","REF_FRAME":"TEME","MEAN_ANOMALY":"296.3187","REV_AT_EPOCH":"9917","MEAN_MOTION":"15.06385866","PERIAPSIS":"546.247","MEAN_MOTION_DOT":"-0.00001777","EPHEMERIS_TYPE":"0","DECAY_DATE":null,"OBJECT_ID":"2020-062N","CENTER_NAME":"EARTH","LAUNCH_DATE":"2020-09-03","FILE":"3496999","INCLINATION":"53.0558","PERIOD":"95.593","TLE_LINE2":"2 46337  53.0558 354.8505 0001458  63.7952 296.3187 15.06385866 99171","ARG_OF_PERICENTER":"63.7952","ECCENTRICITY":"0.00014580","TIME_SYSTEM":"UTC","RA_OF_ASC_NODE":"354.8505","COUNTRY_CODE":"US","EPOCH":"2022-06-15T19:20:26.463840","ELEMENT_SET_NO":"999"},{"SEMIMAJOR_AXIS":"6925.334","REF_FRAME":"TEME","REV_AT_EPOCH":"9891","MEAN_ANOMALY":"294.9650","PERIAPSIS":"546.063","MEAN_MOTION_DOT":"0.00000737","MEAN_MOTION":"15.06404676","EPHEMERIS_TYPE":"0","DECAY_DATE":null,"OBJECT_ID":"2020-062P","CENTER_NAME":"EARTH","LAUNCH_DATE":"2020-09-03","FILE":"3497002","INCLINATION":"53.0573","ECCENTRICITY":"0.00016410","TLE_LINE2":"2 46338  53.0573  14.0288 0001641  65.1509 294.9650 15.06404676 98911","PERIOD":"95.592","ARG_OF_PERICENTER":"65.1509","TIME_SYSTEM":"UTC","RA_OF_ASC_NODE":"14.0288","COUNTRY_CODE":"US","EPOCH":"2022-06-15T23:43:08.777856","ELEMENT_SET_NO":"999","RCS_SIZE":"LARGE","BSTAR":"0.00006834000000","TLE_LINE1":"1 46338U 20062P   22166.98829604  .00000737  00000-0  68340-4 0  9999","NORAD_CAT_ID":"46338","OBJECT_NAME":"STARLINK-1752","APOAPSIS":"548.336","SITE":"AFETR","GP_ID":"206286510","MEAN_ELEMENT_THEORY":"SGP4","MEAN_MOTION_DDOT":"0.0000000000000","CLASSIFICATION_TYPE":"U","OBJECT_TYPE":"PAYLOAD"},{"MEAN_ELEMENT_THEORY":"SGP4","MEAN_MOTION_DDOT":"0.0000000000000","CLASSIFICATION_TYPE":"U","OBJECT_TYPE":"PAYLOAD","OBJECT_NAME":"STARLINK-1759","APOAPSIS":"548.318","SITE":"AFETR","GP_ID":"206285265","RCS_SIZE":"LARGE","BSTAR":"0.00005359600000","TLE_LINE1":"1 46340U 20062R   22166.96250032  .00000517  00000-0  53596-4 0  9996","NORAD_CAT_ID":"46340","PERIOD":"95.592","TLE_LINE2":"2 46340  53.0557  14.1541 0001597  61.7171 298.3979 15.06400597 98905","ARG_OF_PERICENTER":"61.7171","ECCENTRICITY":"0.00015970","TIME_SYSTEM":"UTC","RA_OF_ASC_NODE":"14.1541","EPOCH":"2022-06-15T23:06:00.027648","COUNTRY_CODE":"US","ELEMENT_SET_NO":"999","LAUNCH_DATE":"2020-09-03","FILE":"3497002","INCLINATION":"53.0557","OBJECT_ID":"2020-062R","CENTER_NAME":"EARTH","SEMIMAJOR_AXIS":"6925.347","REF_FRAME":"TEME","REV_AT_EPOCH":"9890","MEAN_ANOMALY":"298.3979","PERIAPSIS":"546.106","MEAN_MOTION":"15.06400597","MEAN_MOTION_DOT":"0.00000517","EPHEMERIS_TYPE":"0","DECAY_DATE":null},{"OBJECT_ID":"2020-062S","CENTER_NAME":"EARTH","SEMIMAJOR_AXIS":"6925.374","REF_FRAME":"TEME","MEAN_ANOMALY":"294.3981","REV_AT_EPOCH":"9918","EPHEMERIS_TYPE":"0","DECAY_DATE":null,"PERIAPSIS":"546.036","MEAN_MOTION":"15.06391853","MEAN_MOTION_DOT":"0.00000014","TIME_SYSTEM":"UTC","TLE_LINE2":"2 46341  53.0553 354.7135 0001736  65.7189 294.3981 15.06391853 99186","PERIOD":"95.593","ARG_OF_PERICENTER":"65.7189","ECCENTRICITY":"0.00017360","RA_OF_ASC_NODE":"354.7135","ELEMENT_SET_NO":"999","COUNTRY_CODE":"US","EPOCH":"2022-06-15T20:02:53.703456","LAUNCH_DATE":"2020-09-03","INCLINATION":"53.0553","FILE":"3496999","RCS_SIZE":"LARGE","BSTAR":"0.00001982600000","NORAD_CAT_ID":"46341","TLE_LINE1":"1 46341U 20062S   22166.83534379  .00000014  00000-0  19826-4 0  9992","MEAN_MOTION_DDOT":"0.0000000000000","MEAN_ELEMENT_THEORY":"SGP4","OBJECT_TYPE":"PAYLOAD","CLASSIFICATION_TYPE":"U","OBJECT_NAME":"STARLINK-1760","APOAPSIS":"548.441","GP_ID":"206234260","SITE":"AFETR"}];
